[
    {
            "longitude": 115.195319,
            "latitude": 4.48825,
            "postalCode": "PD1151"
    },
    {
        "longitude": 115.195319,
        "latitude": 4.48825,
        "postalCode": "PD1351"
    },
    {
        "longitude": 115.195319,
        "latitude": 4.48825,
        "postalCode": "PD1551"
    },
    {
        "longitude": 115.118437,
        "latitude": 4.580125,
        "postalCode": "PD1951"
    },
    {
        "longitude": 115.089415,
        "latitude": 4.665869,
        "postalCode": "PD3151"
    },
    {
        "longitude": 115.100831,
        "latitude": 4.657967,
        "postalCode": "PD2551"
    },
    {
        "longitude": 115.195319,
        "latitude": 4.48825,
        "postalCode": "PD3351"
    },
    {
        "longitude": 115.195319,
        "latitude": 4.48825,
        "postalCode": "PD3551"
    },
    {
        "longitude": 115.108545,
        "latitude": 4.641392,
        "postalCode": "PD2351"
    },
    {
        "longitude": 115.100756,
        "latitude": 4.646044,
        "postalCode": "PD2751"
    },
    {
        "longitude": 115.195319,
        "latitude": 4.48825,
        "postalCode": "PD2951"
    },
    {
        "longitude": 115.105197,
        "latitude": 4.621972,
        "postalCode": "PD2151"
    },
    {
        "longitude": 115.108652,
        "latitude": 4.600509,
        "postalCode": "PD1751"
    },
    {
        "longitude": 115.066192,
        "latitude": 4.73171,
        "postalCode": "PA1351"
    },
    {
        "longitude": 115.066192,
        "latitude": 4.73171,
        "postalCode": "PA2551"
    },
    {
        "longitude": 115.066192,
        "latitude": 4.73171,
        "postalCode": "PA3351"
    },
    {
        "longitude": 115.066192,
        "latitude": 4.73171,
        "postalCode": "PA3151"
    },
    {
        "longitude": 115.066192,
        "latitude": 4.73171,
        "postalCode": "PA2951"
    },
    {
        "longitude": 115.066192,
        "latitude": 4.73171,
        "postalCode": "PA1751"
    },
    {
        "longitude": 115.046586,
        "latitude": 4.69736,
        "postalCode": "PA3751"
    },
    {
        "longitude": 115.066192,
        "latitude": 4.73171,
        "postalCode": "PA2751"
    },
    {
        "longitude": 115.066192,
        "latitude": 4.73171,
        "postalCode": "PA3551"
    },
    {
        "longitude": 115.066192,
        "latitude": 4.73171,
        "postalCode": "PA1951"
    },
    {
        "longitude": 115.066192,
        "latitude": 4.73171,
        "postalCode": "PA2351"
    },
    {
        "longitude": 115.066192,
        "latitude": 4.73171,
        "postalCode": "PA2151"
    },
    {
        "longitude": 115.066192,
        "latitude": 4.73171,
        "postalCode": "PA3951"
    },
    {
        "longitude": 115.066192,
        "latitude": 4.73171,
        "postalCode": "PA1351"
    },
    {
        "longitude": 115.066192,
        "latitude": 4.73171,
        "postalCode": "PA1151"
    },
    {
        "longitude": 115.066192,
        "latitude": 4.73171,
        "postalCode": "PA1551"
    },
    {
        "longitude": 115.194826,
        "latitude": 4.680968,
        "postalCode": "PC1151"
    },
    {
        "longitude": 115.225203,
        "latitude": 4.66086,
        "postalCode": "PC1951"
    },
    {
        "longitude": 115.225203,
        "latitude": 4.66086,
        "postalCode": "PC2751"
    },
    {
        "longitude": 115.181587,
        "latitude": 4.709924,
        "postalCode": "PC3151"
    },
    {
        "longitude": 115.101646,
        "latitude": 4.722338,
        "postalCode": "PC2151"
    },
    {
        "longitude": 115.124767,
        "latitude": 4.728604,
        "postalCode": "PC2351"
    },
    {
        "longitude": 115.123329,
        "latitude": 4.717858,
        "postalCode": "PC2551"
    },
    {
        "longitude": 115.107729,
        "latitude": 4.718542,
        "postalCode": "PC1551"
    },
    {
        "longitude": 115.225203,
        "latitude": 4.66086,
        "postalCode": "PC3551"
    },
    {
        "longitude": 115.207679,
        "latitude": 4.674894,
        "postalCode": "PC3351"
    },
    {
        "longitude": 115.225203,
        "latitude": 4.66086,
        "postalCode": "PC1751"
    },
    {
        "longitude": 115.116527,
        "latitude": 4.709518,
        "postalCode": "PC1351"
    },
    {
        "longitude": 115.225203,
        "latitude": 4.66086,
        "postalCode": "PC2951"
    },
    {
        "longitude": 115.115444,
        "latitude": 4.52815,
        "postalCode": "PE2351"
    },
    {
        "longitude": 115.046462,
        "latitude": 4.666463,
        "postalCode": "PE1351"
    },
    {
        "longitude": 115.115444,
        "latitude": 4.52815,
        "postalCode": "PE1551"
    },
    {
        "longitude": 115.115444,
        "latitude": 4.52815,
        "postalCode": "PE1951"
    },
    {
        "longitude": 115.042101,
        "latitude": 4.683096,
        "postalCode": "PE1151"
    },
    {
        "longitude": 115.115444,
        "latitude": 4.52815,
        "postalCode": "PE3351"
    },
    {
        "longitude": 115.115444,
        "latitude": 4.52815,
        "postalCode": "PE3551"
    },
    {
        "longitude": 115.0569,
        "latitude": 4.60149,
        "postalCode": "PE3751"
    },
    {
        "longitude": 115.115444,
        "latitude": 4.52815,
        "postalCode": "PE2151"
    },
    {
        "longitude": 115.115444,
        "latitude": 4.52815,
        "postalCode": "PE1751"
    },
    {
        "longitude": 115.115444,
        "latitude": 4.52815,
        "postalCode": "PE2951"
    },
    {
        "longitude": 115.115444,
        "latitude": 4.52815,
        "postalCode": "PE3151"
    },
    {
        "longitude": 115.068569,
        "latitude": 4.651861,
        "postalCode": "PE2751"
    },
    {
        "longitude": 115.115444,
        "latitude": 4.52815,
        "postalCode": "PE4151"
    },
    {
        "longitude": 115.115444,
        "latitude": 4.52815,
        "postalCode": "PE3951"
    },
    {
        "longitude": 115.115444,
        "latitude": 4.52815,
        "postalCode": "PE2551"
    },
    {
        "longitude": 115.115444,
        "latitude": 4.52815,
        "postalCode": "PE4351"
    },
    {
        "longitude": 115.147229,
        "latitude": 4.8022,
        "postalCode": "PB1951"
    },
    {
        "longitude": 115.186222,
        "latitude": 4.75821,
        "postalCode": "PB1151"
    },
    {
        "longitude": 115.147229,
        "latitude": 4.8022,
        "postalCode": "PB1751"
    },
    {
        "longitude": 115.196221,
        "latitude": 4.785196,
        "postalCode": "PB1551"
    },
    {
        "longitude": 115.203001,
        "latitude": 4.749742,
        "postalCode": "PB1351"
    },
    {
        "longitude": 114.745252,
        "latitude": 4.85122,
        "postalCode": "TB2141"
    },
    {
        "longitude": 114.728562,
        "latitude": 4.830601,
        "postalCode": "TB1341"
    },
    {
        "longitude": 114.745252,
        "latitude": 4.85122,
        "postalCode": "TB3341"
    },
    {
        "longitude": 114.745252,
        "latitude": 4.85122,
        "postalCode": "TB2541"
    },
    {
        "longitude": 114.699618,
        "latitude": 4.815516,
        "postalCode": "TB1141"
    },
    {
        "longitude": 114.788428,
        "latitude": 4.833637,
        "postalCode": "TB2941"
    },
    {
        "longitude": 114.745252,
        "latitude": 4.85122,
        "postalCode": "TB1541"
    },
    {
        "longitude": 114.745252,
        "latitude": 4.85122,
        "postalCode": "TB3141"
    },
    {
        "longitude": 114.745252,
        "latitude": 4.85122,
        "postalCode": "TB1941"
    },
    {
        "longitude": 114.733984,
        "latitude": 4.795603,
        "postalCode": "TB2341"
    },
    {
        "longitude": 114.74826,
        "latitude": 4.818975,
        "postalCode": "TB1741"
    },
    {
        "longitude": 114.763366,
        "latitude": 4.806814,
        "postalCode": "TB2741"
    },
    {
        "longitude": 114.731925,
        "latitude": 4.67203,
        "postalCode": "TG1743"
    },
    {
        "longitude": 114.719528,
        "latitude": 4.670649,
        "postalCode": "TG2943"
    },
    {
        "longitude": 114.69186,
        "latitude": 4.668708,
        "postalCode": "TG3343"
    },
    {
        "longitude": 114.7387,
        "latitude": 4.652139,
        "postalCode": "TG2743"
    },
    {
        "longitude": 114.699476,
        "latitude": 4.698889,
        "postalCode": "TG1343"
    },
    {
        "longitude": 114.715399,
        "latitude": 4.681598,
        "postalCode": "TG2343"
    },
    {
        "longitude": 114.677149,
        "latitude": 4.68871,
        "postalCode": "TG1143"
    },
    {
        "longitude": 114.677798,
        "latitude": 4.641045,
        "postalCode": "TG3143"
    },
    {
        "longitude": 114.731925,
        "latitude": 4.67203,
        "postalCode": "TG1943"
    },
    {
        "longitude": 114.731925,
        "latitude": 4.67203,
        "postalCode": "TG1543"
    },
    {
        "longitude": 114.731925,
        "latitude": 4.67203,
        "postalCode": "TG2543"
    },
    {
        "longitude": 114.731925,
        "latitude": 4.67203,
        "postalCode": "TG2143"
    },
    {
        "longitude": 114.752787,
        "latitude": 4.780872,
        "postalCode": "TE1143"
    },
    {
        "longitude": 114.75872,
        "latitude": 4.74925,
        "postalCode": "TE2543"
    },
    {
        "longitude": 114.764609,
        "latitude": 4.795242,
        "postalCode": "TE2143"
    },
    {
        "longitude": 114.745274,
        "latitude": 4.745245,
        "postalCode": "TE2743"
    },
    {
        "longitude": 114.737329,
        "latitude": 4.743375,
        "postalCode": "TE1543"
    },
    {
        "longitude": 114.745274,
        "latitude": 4.745245,
        "postalCode": "TE2343"
    },
    {
        "longitude": 114.740846,
        "latitude": 4.733971,
        "postalCode": "TE1743"
    },
    {
        "longitude": 114.732284,
        "latitude": 4.720863,
        "postalCode": "TE1943"
    },
    {
        "longitude": 114.742848,
        "latitude": 4.765609,
        "postalCode": "TE1343"
    },
    {
        "longitude": 114.712766,
        "latitude": 4.857343,
        "postalCode": "TA3141"
    },
    {
        "longitude": 114.663849,
        "latitude": 4.81592,
        "postalCode": "TA1341"
    },
    {
        "longitude": 114.656736,
        "latitude": 4.80804,
        "postalCode": "TA1141"
    },
    {
        "longitude": 114.656736,
        "latitude": 4.80804,
        "postalCode": "TA1141"
    },
    {
        "longitude": 114.609282,
        "latitude": 4.781962,
        "postalCode": "TA3341"
    },
    {
        "longitude": 114.667301,
        "latitude": 4.804236,
        "postalCode": "TA2141"
    },
    {
        "longitude": 114.674115,
        "latitude": 4.813103,
        "postalCode": "TA1941"
    },
    {
        "longitude": 114.625729,
        "latitude": 4.795847,
        "postalCode": "TA3541"
    },
    {
        "longitude": 114.680276,
        "latitude": 4.837674,
        "postalCode": "TA2741"
    },
    {
        "longitude": 114.645585,
        "latitude": 4.804784,
        "postalCode": "TA2341"
    },
    {
        "longitude": 114.650593,
        "latitude": 4.789154,
        "postalCode": "TA2541"
    },
    {
        "longitude": 114.656281,
        "latitude": 4.812245,
        "postalCode": "TA1541"
    },
    {
        "longitude": 114.656736,
        "latitude": 4.80804,
        "postalCode": "TA1741"
    },
    {
        "longitude": 114.656736,
        "latitude": 4.80804,
        "postalCode": "TA2941"
    },
    {
        "longitude": 114.656736,
        "latitude": 4.80804,
        "postalCode": "TA1141"
    },
    {
        "longitude": 114.746582,
        "latitude": 4.486355,
        "postalCode": "TH1949"
    },
    {
        "longitude": 114.746582,
        "latitude": 4.486355,
        "postalCode": "TH3949"
    },
    {
        "longitude": 114.746582,
        "latitude": 4.486355,
        "postalCode": "TH2749"
    },
    {
        "longitude": 114.746582,
        "latitude": 4.486355,
        "postalCode": "TH4149"
    },
    {
        "longitude": 114.746582,
        "latitude": 4.486355,
        "postalCode": "TH1749"
    },
    {
        "longitude": 114.746582,
        "latitude": 4.486355,
        "postalCode": "TH2549"
    },
    {
        "longitude": 114.746582,
        "latitude": 4.486355,
        "postalCode": "TH1549"
    },
    {
        "longitude": 114.746582,
        "latitude": 4.486355,
        "postalCode": "TH3749"
    },
    {
        "longitude": 114.746582,
        "latitude": 4.486355,
        "postalCode": "TH2949"
    },
    {
        "longitude": 114.746582,
        "latitude": 4.486355,
        "postalCode": "TH1349"
    },
    {
        "longitude": 114.746582,
        "latitude": 4.486355,
        "postalCode": "TH2349"
    },
    {
        "longitude": 114.746582,
        "latitude": 4.486355,
        "postalCode": "TH1149"
    },
    {
        "longitude": 114.746582,
        "latitude": 4.486355,
        "postalCode": "TH2149"
    },
    {
        "longitude": 114.746582,
        "latitude": 4.486355,
        "postalCode": "TH3149"
    },
    {
        "longitude": 114.746582,
        "latitude": 4.486355,
        "postalCode": "TH3549"
    },
    {
        "longitude": 114.746582,
        "latitude": 4.486355,
        "postalCode": "TH3349"
    },
    {
        "longitude": 114.650016,
        "latitude": 4.732015,
        "postalCode": "TD1541"
    },
    {
        "longitude": 114.650572,
        "latitude": 4.730774,
        "postalCode": "TD2341"
    },
    {
        "longitude": 114.662977,
        "latitude": 4.764554,
        "postalCode": "TD2541"
    },
    {
        "longitude": 114.647634,
        "latitude": 4.716062,
        "postalCode": "TD1741"
    },
    {
        "longitude": 114.661914,
        "latitude": 4.732859,
        "postalCode": "TD1341"
    },
    {
        "longitude": 114.669288,
        "latitude": 4.742255,
        "postalCode": "TD1941"
    },
    {
        "longitude": 114.669288,
        "latitude": 4.742255,
        "postalCode": "TD1141"
    },
    {
        "longitude": 114.606253,
        "latitude": 4.734158,
        "postalCode": "TC3145"
    },
    {
        "longitude": 114.582617,
        "latitude": 4.756895,
        "postalCode": "TC2345"
    },
    {
        "longitude": 114.562994,
        "latitude": 4.737532,
        "postalCode": "TC2745"
    },
    {
        "longitude": 114.577509,
        "latitude": 4.721135,
        "postalCode": "TC1745"
    },
    {
        "longitude": 114.577509,
        "latitude": 4.721135,
        "postalCode": "TC2545"
    },
    {
        "longitude": 114.532125,
        "latitude": 4.709699,
        "postalCode": "TC2145"
    },
    {
        "longitude": 114.577509,
        "latitude": 4.721135,
        "postalCode": "TC1945"
    },
    {
        "longitude": 114.556368,
        "latitude": 4.726422,
        "postalCode": "TC1545"
    },
    {
        "longitude": 114.532707,
        "latitude": 4.709903,
        "postalCode": "TC1145"
    },
    {
        "longitude": 114.577509,
        "latitude": 4.721135,
        "postalCode": "TC2945"
    },
    {
        "longitude": 114.577509,
        "latitude": 4.721135,
        "postalCode": "TC3345"
    },
    {
        "longitude": 114.577509,
        "latitude": 4.721135,
        "postalCode": "TC1345"
    },
    {
        "longitude": 114.606285,
        "latitude": 4.596573,
        "postalCode": "TF4547"
    },
    {
        "longitude": 114.607119,
        "latitude": 4.61331,
        "postalCode": "TF4147"
    },
    {
        "longitude": 114.607119,
        "latitude": 4.61331,
        "postalCode": "TF2547"
    },
    {
        "longitude": 114.653084,
        "latitude": 4.627362,
        "postalCode": "TF3147"
    },
    {
        "longitude": 114.606972,
        "latitude": 4.585034,
        "postalCode": "TF4347"
    },
    {
        "longitude": 114.637184,
        "latitude": 4.559228,
        "postalCode": "TF4747"
    },
    {
        "longitude": 114.621027,
        "latitude": 4.591162,
        "postalCode": "TF3747"
    },
    {
        "longitude": 114.607119,
        "latitude": 4.61331,
        "postalCode": "TF1947"
    },
    {
        "longitude": 114.628451,
        "latitude": 4.657421,
        "postalCode": "TF2947"
    },
    {
        "longitude": 114.627035,
        "latitude": 4.603974,
        "postalCode": "TF2747"
    },
    {
        "longitude": 114.653556,
        "latitude": 4.675514,
        "postalCode": "TF1547"
    },
    {
        "longitude": 114.607119,
        "latitude": 4.61331,
        "postalCode": "TF3947"
    },
    {
        "longitude": 114.607119,
        "latitude": 4.61331,
        "postalCode": "TF3347"
    },
    {
        "longitude": 114.607119,
        "latitude": 4.61331,
        "postalCode": "TF1347"
    },
    {
        "longitude": 114.607119,
        "latitude": 4.61331,
        "postalCode": "TF2347"
    },
    {
        "longitude": 114.607119,
        "latitude": 4.61331,
        "postalCode": "TF2147"
    },
    {
        "longitude": 114.637603,
        "latitude": 4.654256,
        "postalCode": "TF3547"
    },
    {
        "longitude": 114.607119,
        "latitude": 4.61331,
        "postalCode": "TF1747"
    },
    {
        "longitude": 114.607119,
        "latitude": 4.61331,
        "postalCode": "TF1147"
    },
    {
        "longitude": 114.551976,
        "latitude": 4.538535,
        "postalCode": "KF4138"
    },
    {
        "longitude": 114.551976,
        "latitude": 4.538535,
        "postalCode": "KF4338"
    },
    {
        "longitude": 114.514704,
        "latitude": 4.55418,
        "postalCode": "KF1338"
    },
    {
        "longitude": 114.551976,
        "latitude": 4.538535,
        "postalCode": "KF2138"
    },
    {
        "longitude": 114.551976,
        "latitude": 4.538535,
        "postalCode": "KF1738"
    },
    {
        "longitude": 114.592659,
        "latitude": 4.517003,
        "postalCode": "KF2738"
    },
    {
        "longitude": 114.551976,
        "latitude": 4.538535,
        "postalCode": "KF2538"
    },
    {
        "longitude": 114.566073,
        "latitude": 4.539784,
        "postalCode": "KF2338"
    },
    {
        "longitude": 114.551976,
        "latitude": 4.538535,
        "postalCode": "KF3538"
    },
    {
        "longitude": 114.551976,
        "latitude": 4.538535,
        "postalCode": "KF3338"
    },
    {
        "longitude": 114.573219,
        "latitude": 4.529773,
        "postalCode": "KF3138"
    },
    {
        "longitude": 114.551976,
        "latitude": 4.538535,
        "postalCode": "KF3938"
    },
    {
        "longitude": 114.551976,
        "latitude": 4.538535,
        "postalCode": "KF4738"
    },
    {
        "longitude": 114.557608,
        "latitude": 4.526864,
        "postalCode": "KF4538"
    },
    {
        "longitude": 114.551976,
        "latitude": 4.538535,
        "postalCode": "KF2938"
    },
    {
        "longitude": 114.551976,
        "latitude": 4.538535,
        "postalCode": "KF1138"
    },
    {
        "longitude": 114.524703,
        "latitude": 4.537036,
        "postalCode": "KF1538"
    },
    {
        "longitude": 114.558392,
        "latitude": 4.508917,
        "postalCode": "KF3738"
    },
    {
        "longitude": 114.554561,
        "latitude": 4.516543,
        "postalCode": "KF1938"
    },
    {
        "longitude": 114.354076,
        "latitude": 4.45201,
        "postalCode": "KD1132"
    },
    {
        "longitude": 114.354076,
        "latitude": 4.45201,
        "postalCode": "KD1332"
    },
    {
        "longitude": 114.354076,
        "latitude": 4.45201,
        "postalCode": "KD1532"
    },
    {
        "longitude": 114.231977,
        "latitude": 4.556195,
        "postalCode": "KA1131"
    },
    {
        "longitude": 114.231977,
        "latitude": 4.556195,
        "postalCode": "KA1131"
    },
    {
        "longitude": 114.192128,
        "latitude": 4.581266,
        "postalCode": "KA2331"
    },
    {
        "longitude": 114.231977,
        "latitude": 4.556195,
        "postalCode": "KA1331"
    },
    {
        "longitude": 114.214167,
        "latitude": 4.584849,
        "postalCode": "KA1731"
    },
    {
        "longitude": 114.231977,
        "latitude": 4.556195,
        "postalCode": "KA1531"
    },
    {
        "longitude": 114.217257,
        "latitude": 4.590571,
        "postalCode": "KA1931"
    },
    {
        "longitude": 114.231977,
        "latitude": 4.556195,
        "postalCode": "KA2731"
    },
    {
        "longitude": 114.200333,
        "latitude": 4.577254,
        "postalCode": "KA3131"
    },
    {
        "longitude": 114.1816,
        "latitude": 4.582654,
        "postalCode": "KA3331"
    },
    {
        "longitude": 114.231977,
        "latitude": 4.556195,
        "postalCode": "KA1131"
    },
    {
        "longitude": 114.231977,
        "latitude": 4.556195,
        "postalCode": "KA2931"
    },
    {
        "longitude": 114.228134,
        "latitude": 4.577223,
        "postalCode": "KA2131"
    },
    {
        "longitude": 114.231977,
        "latitude": 4.556195,
        "postalCode": "KA3531"
    },
    {
        "longitude": 114.460931,
        "latitude": 4.533003,
        "postalCode": "KE1137"
    },
    {
        "longitude": 114.455592,
        "latitude": 4.3609,
        "postalCode": "KE2537"
    },
    {
        "longitude": 114.459686,
        "latitude": 4.413313,
        "postalCode": "KE2737"
    },
    {
        "longitude": 114.455592,
        "latitude": 4.3609,
        "postalCode": "KE1537"
    },
    {
        "longitude": 114.453592,
        "latitude": 4.357441,
        "postalCode": "KE3537"
    },
    {
        "longitude": 114.442842,
        "latitude": 4.341597,
        "postalCode": "KE3737"
    },
    {
        "longitude": 114.455592,
        "latitude": 4.3609,
        "postalCode": "KE2937"
    },
    {
        "longitude": 114.455592,
        "latitude": 4.3609,
        "postalCode": "KE3337"
    },
    {
        "longitude": 114.464675,
        "latitude": 4.452528,
        "postalCode": "KE2137"
    },
    {
        "longitude": 114.455592,
        "latitude": 4.3609,
        "postalCode": "KE1337"
    },
    {
        "longitude": 114.465673,
        "latitude": 4.404991,
        "postalCode": "KE3137"
    },
    {
        "longitude": 114.468924,
        "latitude": 4.469043,
        "postalCode": "KE1937"
    },
    {
        "longitude": 114.420483,
        "latitude": 4.286436,
        "postalCode": "KE3937"
    },
    {
        "longitude": 114.461725,
        "latitude": 4.439777,
        "postalCode": "KE2337"
    },
    {
        "longitude": 114.46695,
        "latitude": 4.484606,
        "postalCode": "KE1737"
    },
    {
        "longitude": 114.473439,
        "latitude": 4.628915,
        "postalCode": "KC1535"
    },
    {
        "longitude": 114.473439,
        "latitude": 4.628915,
        "postalCode": "KC1335"
    },
    {
        "longitude": 114.505782,
        "latitude": 4.661273,
        "postalCode": "KC1735"
    },
    {
        "longitude": 114.473439,
        "latitude": 4.628915,
        "postalCode": "KC2335"
    },
    {
        "longitude": 114.503374,
        "latitude": 4.692837,
        "postalCode": "KC2535"
    },
    {
        "longitude": 114.473439,
        "latitude": 4.628915,
        "postalCode": "KC2135"
    },
    {
        "longitude": 114.473439,
        "latitude": 4.628915,
        "postalCode": "KC1935"
    },
    {
        "longitude": 114.502677,
        "latitude": 4.683128,
        "postalCode": "KC1135"
    },
    {
        "longitude": 114.514446,
        "latitude": 4.692987,
        "postalCode": "KC2735"
    },
    {
        "longitude": 114.473439,
        "latitude": 4.628915,
        "postalCode": "KC3135"
    },
    {
        "longitude": 114.473439,
        "latitude": 4.628915,
        "postalCode": "KC2935"
    },
    {
        "longitude": 114.672159,
        "latitude": 4.141135,
        "postalCode": "KH1539"
    },
    {
        "longitude": 114.672159,
        "latitude": 4.141135,
        "postalCode": "KH1339"
    },
    {
        "longitude": 114.672159,
        "latitude": 4.141135,
        "postalCode": "KH1139"
    },
    {
        "longitude": 114.345967,
        "latitude": 4.596175,
        "postalCode": "KB2333"
    },
    {
        "longitude": 114.345967,
        "latitude": 4.596175,
        "postalCode": "KB3933"
    },
    {
        "longitude": 114.355553,
        "latitude": 4.613278,
        "postalCode": "KB2133"
    },
    {
        "longitude": 114.345967,
        "latitude": 4.596175,
        "postalCode": "KB1333"
    },
    {
        "longitude": 114.329286,
        "latitude": 4.614361,
        "postalCode": "KB2733"
    },
    {
        "longitude": 114.329851,
        "latitude": 4.61331,
        "postalCode": "KB1133"
    },
    {
        "longitude": 114.345967,
        "latitude": 4.596175,
        "postalCode": "KB1733"
    },
    {
        "longitude": 114.345967,
        "latitude": 4.596175,
        "postalCode": "KB2533"
    },
    {
        "longitude": 114.360402,
        "latitude": 4.614021,
        "postalCode": "KB1933"
    },
    {
        "longitude": 114.345967,
        "latitude": 4.596175,
        "postalCode": "KB4333"
    },
    {
        "longitude": 114.345967,
        "latitude": 4.596175,
        "postalCode": "KB3333"
    },
    {
        "longitude": 114.345967,
        "latitude": 4.596175,
        "postalCode": "KB2933"
    },
    {
        "longitude": 114.345967,
        "latitude": 4.596175,
        "postalCode": "KB3133"
    },
    {
        "longitude": 114.345967,
        "latitude": 4.596175,
        "postalCode": "KB3533"
    },
    {
        "longitude": 114.345967,
        "latitude": 4.596175,
        "postalCode": "KB3733"
    },
    {
        "longitude": 114.291468,
        "latitude": 4.59999,
        "postalCode": "KB4533"
    },
    {
        "longitude": 114.345967,
        "latitude": 4.596175,
        "postalCode": "KB1533"
    },
    {
        "longitude": 114.345967,
        "latitude": 4.596175,
        "postalCode": "KB4133"
    },
    {
        "longitude": 114.670337,
        "latitude": 4.308385,
        "postalCode": "KG2339"
    },
    {
        "longitude": 114.670337,
        "latitude": 4.308385,
        "postalCode": "KG1139"
    },
    {
        "longitude": 114.670337,
        "latitude": 4.308385,
        "postalCode": "KG2539"
    },
    {
        "longitude": 114.670337,
        "latitude": 4.308385,
        "postalCode": "KG2739"
    },
    {
        "longitude": 114.669113,
        "latitude": 4.388731,
        "postalCode": "KG1539"
    },
    {
        "longitude": 114.670337,
        "latitude": 4.308385,
        "postalCode": "KG2139"
    },
    {
        "longitude": 114.655648,
        "latitude": 4.404681,
        "postalCode": "KG1739"
    },
    {
        "longitude": 114.670337,
        "latitude": 4.308385,
        "postalCode": "KG1339"
    },
    {
        "longitude": 114.670337,
        "latitude": 4.308385,
        "postalCode": "KG1939"
    },
    {
        "longitude": 114.939232,
        "latitude": 4.917523,
        "postalCode": "BS8610"
    },
    {
        "longitude": 114.939232,
        "latitude": 4.917523,
        "postalCode": "BS8610"
    },
    {
        "longitude": 114.945437,
        "latitude": 4.894291,
        "postalCode": "BS8211"
    },
    {
        "longitude": 114.930806,
        "latitude": 4.913919,
        "postalCode": "BS8810"
    },
    {
        "longitude": 114.938951,
        "latitude": 4.92083,
        "postalCode": "BS8510"
    },
    {
        "longitude": 114.939232,
        "latitude": 4.917523,
        "postalCode": "BS8610"
    },
    {
        "longitude": 114.935556,
        "latitude": 4.895556,
        "postalCode": "BS8410"
    },
    {
        "longitude": 114.939232,
        "latitude": 4.917523,
        "postalCode": "BS8610"
    },
    {
        "longitude": 114.939232,
        "latitude": 4.917523,
        "postalCode": "BS8610"
    },
    {
        "longitude": 114.930881,
        "latitude": 4.914154,
        "postalCode": "BS8810"
    },
    {
        "longitude": 114.943,
        "latitude": 4.887137,
        "postalCode": "BS8811"
    },
    {
        "longitude": 114.94152,
        "latitude": 4.892039,
        "postalCode": "BS8611"
    },
    {
        "longitude": 114.940093,
        "latitude": 4.887899,
        "postalCode": "BS8711"
    },
    {
        "longitude": 114.941481,
        "latitude": 4.891063,
        "postalCode": "BS8610"
    },
    {
        "longitude": 114.957511,
        "latitude": 4.925382,
        "postalCode": "BS8110"
    },
    {
        "longitude": 114.938951,
        "latitude": 4.92083,
        "postalCode": "BS8710"
    },
    {
        "longitude": 114.947042,
        "latitude": 4.891538,
        "postalCode": "BS8111"
    },
    {
        "longitude": 114.939232,
        "latitude": 4.917523,
        "postalCode": "BS8610"
    },
    {
        "longitude": 114.939232,
        "latitude": 4.917523,
        "postalCode": "BS8610"
    },
    {
        "longitude": 114.938951,
        "latitude": 4.92083,
        "postalCode": "BS8510"
    },
    {
        "longitude": 114.939912,
        "latitude": 4.896783,
        "postalCode": "BS8411"
    },
    {
        "longitude": 114.938951,
        "latitude": 4.92083,
        "postalCode": "BS8510"
    },
    {
        "longitude": 114.938951,
        "latitude": 4.92083,
        "postalCode": "BS8710"
    },
    {
        "longitude": 114.939232,
        "latitude": 4.917523,
        "postalCode": "BS8610"
    },
    {
        "longitude": 114.939065,
        "latitude": 4.893174,
        "postalCode": "BS8511"
    },
    {
        "longitude": 114.952971,
        "latitude": 4.953381,
        "postalCode": "BC3715"
    },
    {
        "longitude": 114.973803,
        "latitude": 4.961906,
        "postalCode": "BC3515"
    },
    {
        "longitude": 114.960068,
        "latitude": 4.951569,
        "postalCode": "BC3615"
    },
    {
        "longitude": null,
        "latitude": null,
        "postalCode": "BC1515"
    },
    {
        "longitude": 114.959074,
        "latitude": 4.937962,
        "postalCode": "BC4115"
    },
    {
        "longitude": 114.977275,
        "latitude": 4.931754,
        "postalCode": "BC3915"
    },
    {
        "longitude": 114.979273,
        "latitude": 4.965465,
        "postalCode": "BC2115"
    },
    {
        "longitude": 114.984531,
        "latitude": 4.974811,
        "postalCode": "BC1715"
    },
    {
        "longitude": 114.97569,
        "latitude": 4.953095,
        "postalCode": "BC3315"
    },
    {
        "longitude": null,
        "latitude": null,
        "postalCode": "BC2315"
    },
    {
        "longitude": null,
        "latitude": null,
        "postalCode": "BC2515"
    },
    {
        "longitude": null,
        "latitude": null,
        "postalCode": "BC2715"
    },
    {
        "longitude": null,
        "latitude": null,
        "postalCode": "BC2915"
    },
    {
        "longitude": null,
        "latitude": null,
        "postalCode": "BC3115"
    },
    {
        "longitude": null,
        "latitude": null,
        "postalCode": "BC1115"
    },
    {
        "longitude": 114.901362,
        "latitude": 4.914746,
        "postalCode": "BE2110"
    },
    {
        "longitude": null,
        "latitude": null,
        "postalCode": "BE1310"
    },
    {
        "longitude": null,
        "latitude": null,
        "postalCode": "BE1310"
    },
    {
        "longitude": null,
        "latitude": null,
        "postalCode": "BE1110"
    },
    {
        "longitude": null,
        "latitude": null,
        "postalCode": "BE1110"
    },
    {
        "longitude": 114.915072,
        "latitude": 4.907726,
        "postalCode": "BE3519"
    },
    {
        "longitude": 114.897294,
        "latitude": 4.887601,
        "postalCode": "BE1118"
    },
    {
        "longitude": 114.919904,
        "latitude": 4.910263,
        "postalCode": "BE2719"
    },
    {
        "longitude": 114.907422,
        "latitude": 4.917767,
        "postalCode": "BE2919"
    },
    {
        "longitude": 114.889888,
        "latitude": 4.915761,
        "postalCode": "BE2319"
    },
    {
        "longitude": 114.92023,
        "latitude": 4.895953,
        "postalCode": "BE1318"
    },
    {
        "longitude": 114.929258,
        "latitude": 4.895024,
        "postalCode": "BE1518"
    },
    {
        "longitude": 114.891383,
        "latitude": 4.90184,
        "postalCode": "BE1718"
    },
    {
        "longitude": null,
        "latitude": null,
        "postalCode": "BE3919"
    },
    {
        "longitude": null,
        "latitude": null,
        "postalCode": "BE4119"
    },
    {
        "longitude": 114.917808,
        "latitude": 4.919061,
        "postalCode": "BE3719"
    },
    {
        "longitude": 114.905241,
        "latitude": 4.954095,
        "postalCode": "BE3119"
    },
    {
        "longitude": 114.888411,
        "latitude": 4.938605,
        "postalCode": "BE2119"
    },
    {
        "longitude": 114.88435,
        "latitude": 4.965647,
        "postalCode": "BE3619"
    },
    {
        "longitude": 114.885318,
        "latitude": 4.901596,
        "postalCode": "BE1918"
    },
    {
        "longitude": 114.903337,
        "latitude": 4.966199,
        "postalCode": "BE3319"
    },
    {
        "longitude": 114.916014,
        "latitude": 4.906058,
        "postalCode": "BE2519"
    },
    {
        "longitude": 114.903248,
        "latitude": 4.908253,
        "postalCode": "BE1710"
    },
    {
        "longitude": 114.893426,
        "latitude": 4.975204,
        "postalCode": "BE1410"
    },
    {
        "longitude": 114.866766,
        "latitude": 4.850501,
        "postalCode": "BF1920"
    },
    {
        "longitude": 114.883449,
        "latitude": 4.851731,
        "postalCode": "BF1320"
    },
    {
        "longitude": 114.852874,
        "latitude": 4.824734,
        "postalCode": "BF1720"
    },
    {
        "longitude": 114.845967,
        "latitude": 4.854003,
        "postalCode": "BF2320"
    },
    {
        "longitude": 114.870528,
        "latitude": 4.881519,
        "postalCode": "BF2720"
    },
    {
        "longitude": 114.868327,
        "latitude": 4.857428,
        "postalCode": "BF2520"
    },
    {
        "longitude": 114.895761,
        "latitude": 4.859404,
        "postalCode": "BF1120"
    },
    {
        "longitude": 114.876759,
        "latitude": 4.84076,
        "postalCode": "BF2120"
    },
    {
        "longitude": 114.859306,
        "latitude": 4.89545,
        "postalCode": "BF2920"
    },
    {
        "longitude": 114.884816,
        "latitude": 4.853809,
        "postalCode": "BF1520"
    },
    {
        "longitude": 114.926881,
        "latitude": 4.841265,
        "postalCode": "BJ2924"
    },
    {
        "longitude": 114.926881,
        "latitude": 4.841265,
        "postalCode": "BJ1924"
    },
    {
        "longitude": 114.926881,
        "latitude": 4.841265,
        "postalCode": "BJ2324"
    },
    {
        "longitude": 114.948277,
        "latitude": 4.828837,
        "postalCode": "BJ1724"
    },
    {
        "longitude": 114.914991,
        "latitude": 4.83557,
        "postalCode": "BJ3324"
    },
    {
        "longitude": 114.926881,
        "latitude": 4.841265,
        "postalCode": "BJ1124"
    },
    {
        "longitude": 114.922917,
        "latitude": 4.839367,
        "postalCode": "BJ3324"
    },
    {
        "longitude": 114.926881,
        "latitude": 4.841265,
        "postalCode": "BJ3524"
    },
    {
        "longitude": 114.926881,
        "latitude": 4.841265,
        "postalCode": "BJ2524"
    },
    {
        "longitude": 114.922917,
        "latitude": 4.839367,
        "postalCode": "BJ3324"
    },
    {
        "longitude": 114.926881,
        "latitude": 4.841265,
        "postalCode": "BJ1524"
    },
    {
        "longitude": 114.926881,
        "latitude": 4.841265,
        "postalCode": "BJ1324"
    },
    {
        "longitude": 114.945329,
        "latitude": 4.869293,
        "postalCode": "BJ2124"
    },
    {
        "longitude": 114.822965,
        "latitude": 4.768357,
        "postalCode": "BH1523"
    },
    {
        "longitude": 114.817172,
        "latitude": 4.820702,
        "postalCode": "BH2923"
    },
    {
        "longitude": 114.823523,
        "latitude": 4.787206,
        "postalCode": "BH1323"
    },
    {
        "longitude": 114.840879,
        "latitude": 4.850103,
        "postalCode": "BH3223"
    },
    {
        "longitude": 114.791017,
        "latitude": 4.74406,
        "postalCode": "BH3323"
    },
    {
        "longitude": 114.814194,
        "latitude": 4.792505,
        "postalCode": "BH1723"
    },
    {
        "longitude": 114.827536,
        "latitude": 4.821304,
        "postalCode": "BH3223"
    },
    {
        "longitude": 114.8566,
        "latitude": 4.810844,
        "postalCode": "BH2123"
    },
    {
        "longitude": 114.81007,
        "latitude": 4.747958,
        "postalCode": "BH1923"
    },
    {
        "longitude": 114.820057,
        "latitude": 4.756403,
        "postalCode": "BH2323"
    },
    {
        "longitude": 114.844414,
        "latitude": 4.842322,
        "postalCode": "BH2723"
    },
    {
        "longitude": 114.81097,
        "latitude": 4.804847,
        "postalCode": "BH3123"
    },
    {
        "longitude": 114.833683,
        "latitude": 4.803446,
        "postalCode": "BH1123"
    },
    {
        "longitude": 114.796593,
        "latitude": 4.768538,
        "postalCode": "BH2523"
    },
    {
        "longitude": null,
        "latitude": null,
        "postalCode": "BR1326"
    },
    {
        "longitude": null,
        "latitude": null,
        "postalCode": "BR1526"
    },
    {
        "longitude": null,
        "latitude": null,
        "postalCode": "BR1126"
    },
    {
        "longitude": null,
        "latitude": null,
        "postalCode": "BR1926"
    },
    {
        "longitude": null,
        "latitude": null,
        "postalCode": "BR1726"
    },
    {
        "longitude": 115.040905,
        "latitude": 5.01716,
        "postalCode": "BT1728"
    },
    {
        "longitude": 115.040905,
        "latitude": 5.01716,
        "postalCode": "BT1728"
    },
    {
        "longitude": 115.040905,
        "latitude": 5.01716,
        "postalCode": "BT2928"
    },
    {
        "longitude": 115.040905,
        "latitude": 5.01716,
        "postalCode": "BT2328"
    },
    {
        "longitude": 115.040905,
        "latitude": 5.01716,
        "postalCode": "BT1928"
    },
    {
        "longitude": 115.040905,
        "latitude": 5.01716,
        "postalCode": "BT2728"
    },
    {
        "longitude": 115.040905,
        "latitude": 5.01716,
        "postalCode": "BT1328, BT3528"
    },
    {
        "longitude": 115.040905,
        "latitude": 5.01716,
        "postalCode": "BT3128"
    },
    {
        "longitude": 115.040905,
        "latitude": 5.01716,
        "postalCode": "BT3328"
    },
    {
        "longitude": 115.040905,
        "latitude": 5.01716,
        "postalCode": "BT2128"
    },
    {
        "longitude": 115.040905,
        "latitude": 5.01716,
        "postalCode": "BT1728"
    },
    {
        "longitude": 115.060405,
        "latitude": 5.033363,
        "postalCode": "BT1528"
    },
    {
        "longitude": 115.040905,
        "latitude": 5.01716,
        "postalCode": "BT1128"
    },
    {
        "longitude": 114.937835,
        "latitude": 4.889651,
        "postalCode": "BN1311"
    },
    {
        "longitude": null,
        "latitude": null,
        "postalCode": "BN2111"
    },
    {
        "longitude": null,
        "latitude": null,
        "postalCode": "BN2311"
    },
    {
        "longitude": 114.93738,
        "latitude": 4.892038,
        "postalCode": "BN1111"
    },
    {
        "longitude": null,
        "latitude": null,
        "postalCode": "BN1711"
    },
    {
        "longitude": 114.938875,
        "latitude": 4.886911,
        "postalCode": "BN1511"
    },
    {
        "longitude": 114.938369,
        "latitude": 4.885656,
        "postalCode": "BN1911"
    },
    {
        "longitude": 114.9442708,
        "latitude": 4.9016872,
        "postalCode": "BS8311"
    },
    {
        "longitude": 114.9489712,
        "latitude": 4.9640816,
        "postalCode": "BB1714"
    },
    {
        "longitude": 114.72766899999998,
        "latitude": 4.535277,
        "postalCode": "BB2313"
    },
    {
        "longitude": 114.72766899999998,
        "latitude": 4.535277,
        "postalCode": "BB2513"
    },
    {
        "longitude": 114.93537119999999,
        "latitude": 4.9353394,
        "postalCode": "BB2713"
    },
    {
        "longitude": 114.93166300000001,
        "latitude": 4.928944200000001,
        "postalCode": "BB3113"
    },
    {
        "longitude": 114.9286964,
        "latitude": 4.9290622,
        "postalCode": "BB3313"
    },
    {
        "longitude": 114.72766899999998,
        "latitude": 4.535277,
        "postalCode": "BB3510"
    },
    {
        "longitude": 114.9324046,
        "latitude": 4.9235619999999995,
        "postalCode": "BB3513"
    },
    {
        "longitude": 114.94723730000001,
        "latitude": 4.9348664,
        "postalCode": "BB3713"
    },
    {
        "longitude": 114.72766899999998,
        "latitude": 4.535277,
        "postalCode": "BB3910"
    },
    {
        "longitude": 114.9427875,
        "latitude": 4.9195814,
        "postalCode": "BB3913"
    },
    {
        "longitude": 114.9561365,
        "latitude": 4.9368906,
        "postalCode": "BB4113"
    },
    {
        "longitude": 114.9502037,
        "latitude": 4.9299902,
        "postalCode": "BB4313"
    },
    {
        "longitude": 114.94649559999999,
        "latitude": 4.941439,
        "postalCode": "BB4513"
    },
    {
        "longitude": 114.72766899999998,
        "latitude": 4.535277,
        "postalCode": "BB4713"
    },
    {
        "longitude": 114.72766899999998,
        "latitude": 4.535277,
        "postalCode": "BB5113"
    },
    {
        "longitude": 114.72766899999998,
        "latitude": 4.535277,
        "postalCode": "BJ2724"
    },
    {
        "longitude": 114.72766899999998,
        "latitude": 4.535277,
        "postalCode": "BM1326"
    },
    {
        "longitude": 114.72766899999998,
        "latitude": 4.535277,
        "postalCode": "BM1526"
    },
    {
        "longitude": 114.72766899999998,
        "latitude": 4.535277,
        "postalCode": "BM1726"
    },
    {
        "longitude": 114.72766899999998,
        "latitude": 4.535277,
        "postalCode": "BM1926"
    },
    {
        "longitude": 114.72766899999998,
        "latitude": 4.535277,
        "postalCode": "BM2326"
    },
    {
        "longitude": 114.72766899999998,
        "latitude": 4.535277,
        "postalCode": "BM2726"
    },
    {
        "longitude": 114.72766899999998,
        "latitude": 4.535277,
        "postalCode": "BE4519"
    },
    {
        "longitude": 114.72766899999998,
        "latitude": 4.535277,
        "postalCode": "BA1000"
    },
    {
        "longitude": 114.94056259999999,
        "latitude": 4.907184099999999,
        "postalCode": "BA1111"
    },
    {
        "longitude": 114.93537119999999,
        "latitude": 4.9044174,
        "postalCode": "BA1311"
    },
    {
        "longitude": 114.72766899999998,
        "latitude": 4.535277,
        "postalCode": "BA1710"
    },
    {
        "longitude": 114.72766899999998,
        "latitude": 4.535277,
        "postalCode": "BA1711"
    },
    {
        "longitude": 114.72766899999998,
        "latitude": 4.535277,
        "postalCode": "BA1910"
    },
    {
        "longitude": 114.9346296,
        "latitude": 4.8907756,
        "postalCode": "BA1912"
    },
    {
        "longitude": 114.92498810000001,
        "latitude": 4.8774878,
        "postalCode": "BA2112"
    },
    {
        "longitude": 114.72766899999998,
        "latitude": 4.535277,
        "postalCode": "BA2312"
    },
    {
        "longitude": 114.72766899999998,
        "latitude": 4.535277,
        "postalCode": "BD1510"
    },
    {
        "longitude": 114.72766899999998,
        "latitude": 4.535277,
        "postalCode": "BD1917"
    },
    {
        "longitude": 114.72766899999998,
        "latitude": 4.535277,
        "postalCode": "BD2217"
    },
    {
        "longitude": 114.72766899999998,
        "latitude": 4.535277,
        "postalCode": "BD2317"
    },
    {
        "longitude": 114.72766899999998,
        "latitude": 4.535277,
        "postalCode": "BD2517"
    },
    {
        "longitude": 114.72766899999998,
        "latitude": 4.535277,
        "postalCode": "BD2717"
    },
    {
        "longitude": 114.72766899999998,
        "latitude": 4.535277,
        "postalCode": "BD2917"
    },
    {
        "longitude": 114.72766899999998,
        "latitude": 4.535277,
        "postalCode": "BD3317"
    },
    {
        "longitude": 114.72766899999998,
        "latitude": 4.535277,
        "postalCode": "BD3517"
    },
    {
        "longitude": 114.72766899999998,
        "latitude": 4.535277,
        "postalCode": "BD4117"
    },
    {
        "longitude": 114.72766899999998,
        "latitude": 4.535277,
        "postalCode": "BD4317"
    },
    {
        "longitude": 114.72766899999998,
        "latitude": 4.535277,
        "postalCode": "BD4717"
    },
    {
        "longitude": 114.72766899999998,
        "latitude": 4.535277,
        "postalCode": "BJ1424"
    },
    {
        "longitude": 114.72766899999998,
        "latitude": 4.535277,
        "postalCode": "BJ3724"
    },
    {
        "longitude": 114.72766899999998,
        "latitude": 4.535277,
        "postalCode": "BJ3924"
    },
    {
        "longitude": 114.72766899999998,
        "latitude": 4.535277,
        "postalCode": "BU1129"
    },
    {
        "longitude": 114.72766899999998,
        "latitude": 4.535277,
        "postalCode": "BU1229"
    },
    {
        "longitude": 114.72766899999998,
        "latitude": 4.535277,
        "postalCode": "BU1329"
    },
    {
        "longitude": 114.72766899999998,
        "latitude": 4.535277,
        "postalCode": "BU1429"
    },
    {
        "longitude": 114.72766899999998,
        "latitude": 4.535277,
        "postalCode": "BU1529"
    },
    {
        "longitude": 114.72766899999998,
        "latitude": 4.535277,
        "postalCode": "BU1729"
    },
    {
        "longitude": 114.72766899999998,
        "latitude": 4.535277,
        "postalCode": "BU1929"
    },
    {
        "longitude": 114.72766899999998,
        "latitude": 4.535277,
        "postalCode": "BU2129"
    },
    {
        "longitude": 114.72766899999998,
        "latitude": 4.535277,
        "postalCode": "BU2229"
    },
    {
        "longitude": 114.72766899999998,
        "latitude": 4.535277,
        "postalCode": "BU2329"
    },
    {
        "longitude": 114.72766899999998,
        "latitude": 4.535277,
        "postalCode": "BH3423"
    },
    {
        "longitude": 114.72766899999998,
        "latitude": 4.535277,
        "postalCode": "BP1126"
    },
    {
        "longitude": 114.72766899999998,
        "latitude": 4.535277,
        "postalCode": "BG1221"
    },
    {
        "longitude": 25.48583,
        "latitude": 42.733883,
        "postalCode": "BG1721"
    },
    {
        "longitude": 114.72766899999998,
        "latitude": 4.535277,
        "postalCode": "BG2921"
    },
    {
        "longitude": 114.72766899999998,
        "latitude": 4.535277,
        "postalCode": "BG3122"
    },
    {
        "longitude": 114.72766899999998,
        "latitude": 4.535277,
        "postalCode": "BG3322"
    },
    {
        "longitude": 114.72766899999998,
        "latitude": 4.535277,
        "postalCode": "TG2843"
    },
    {
        "longitude": 114.72766899999998,
        "latitude": 4.535277,
        "postalCode": "TG3543"
    },
    {
        "longitude": 114.72766899999998,
        "latitude": 4.535277,
        "postalCode": "TG3743"
    },
    {
        "longitude": 114.72766899999998,
        "latitude": 4.535277,
        "postalCode": "TA3741"
    },
    {
        "longitude": 114.72766899999998,
        "latitude": 4.535277,
        "postalCode": "KD1732"
    },
    {
        "longitude": 114.72766899999998,
        "latitude": 4.535277,
        "postalCode": "KD1932"
    },
    {
        "longitude": 114.72766899999998,
        "latitude": 4.535277,
        "postalCode": "KD2932"
    },
    {
        "longitude": 114.72766899999998,
        "latitude": 4.535277,
        "postalCode": "KD3132"
    },
    {
        "longitude": 114.72766899999998,
        "latitude": 4.535277,
        "postalCode": "KD3332"
    },
    {
        "longitude": 114.72766899999998,
        "latitude": 4.535277,
        "postalCode": "KD3532"
    },
    {
        "longitude": 114.72766899999998,
        "latitude": 4.535277,
        "postalCode": "KH1739"
    },
    {
        "longitude": 114.72766899999998,
        "latitude": 4.535277,
        "postalCode": "KH1939"
    },
    {
        "longitude": 114.72766899999998,
        "latitude": 4.535277,
        "postalCode": "PD2451"
    },
    {
        "longitude": 114.97096810000001,
        "latitude": 4.9743731,
        "postalCode": "BC2315."
    },
    {
        "longitude": 114.72766899999998,
        "latitude": 4.535277,
        "postalCode": "BE3319 "
    },
    {
        "longitude": 114.72766899999998,
        "latitude": 4.535277,
        "postalCode": "BA1211"
    },
    {
        "longitude": 114.93166300000001,
        "latitude": 4.8908928,
        "postalCode": "BA1712"
    },
    {
        "longitude": 114.72766899999998,
        "latitude": 4.535277,
        "postalCode": "BD3917"
    },
    {
        "longitude": 114.72766899999998,
        "latitude": 4.535277,
        "postalCode": "BG2321"
    },
    {
        "longitude": 114.93500039999999,
        "latitude": 4.8886809,
        "postalCode": "BL1112"
    },
    {
        "longitude": 114.9355566,
        "latitude": 4.8879161,
        "postalCode": "BL1312"
    },
    {
        "longitude": 114.9361128,
        "latitude": 4.8847743,
        "postalCode": "BL1512"
    },
    {
        "longitude": 114.93500039999999,
        "latitude": 4.8833326,
        "postalCode": "BL1712"
    },
    {
        "longitude": 114.93500039999999,
        "latitude": 4.8821441,
        "postalCode": "BL1912"
    },
    {
        "longitude": 114.93314629999999,
        "latitude": 4.8813259,
        "postalCode": "BL2112"
    },
    {
        "longitude": 114.9312921,
        "latitude": 4.878725,
        "postalCode": "BL2312"
    },
    {
        "longitude": 114.72766899999998,
        "latitude": 4.535277,
        "postalCode": "BU2729"
    },
    {
        "longitude": 114.72766899999998,
        "latitude": 4.535277,
        "postalCode": "BU2929"
    },
    {
        "longitude": 114.7277,
        "latitude": 4.5353,
        "postalCodeTemp": "BA1611",
        "postalCode": "TODO"
    },
    {
        "longitude": 114.7277,
        "latitude": 4.5353,
        "postalCodeTemp": "BB1114",
        "postalCode": "TODO"
    },
    {
        "longitude": 114.7277,
        "latitude": 4.5353,
        "postalCodeTemp": "BB1214",
        "postalCode": "TODO"
    },
    {
        "longitude": 114.7277,
        "latitude": 4.5353,
        "postalCodeTemp": "BB1314",
        "postalCode": "TODO"
    },
    {
        "longitude": 114.7277,
        "latitude": 4.5353,
        "postalCodeTemp": "BB1414",
        "postalCode": "TODO"
    },
    {
        "longitude": 114.7277,
        "latitude": 4.5353,
        "postalCodeTemp": "BB1514",
        "postalCode": "TODO"
    },
    {
        "longitude": 114.7277,
        "latitude": 4.5353,
        "postalCodeTemp": "BB2114",
        "postalCode": "TODO"
    },
    {
        "longitude": 114.7277,
        "latitude": 4.5353,
        "postalCodeTemp": "BB4310",
        "postalCode": "TODO"
    },
    {
        "longitude": 114.7277,
        "latitude": 4.5353,
        "postalCodeTemp": "BB5313",
        "postalCode": "TODO"
    },
    {
        "longitude": 114.7277,
        "latitude": 4.5353,
        "postalCodeTemp": "BM2126",
        "postalCode": "TODO"
    },
    {
        "longitude": 114.7277,
        "latitude": 4.5353,
        "postalCodeTemp": "BM2526",
        "postalCode": "TODO"
    },
    {
        "longitude": 114.7277,
        "latitude": 4.5353,
        "postalCodeTemp": "BE3419",
        "postalCode": "TODO"
    },
    {
        "longitude": 114.7277,
        "latitude": 4.5353,
        "postalCodeTemp": "BE3819",
        "postalCode": "TODO"
    },
    {
        "longitude": 114.7277,
        "latitude": 4.5353,
        "postalCodeTemp": "BE4319",
        "postalCode": "TODO"
    },
    {
        "longitude": 114.7277,
        "latitude": 4.5353,
        "postalCodeTemp": "BA1411",
        "postalCode": "TODO"
    },
    {
        "longitude": 114.7277,
        "latitude": 4.5353,
        "postalCodeTemp": "BA1511",
        "postalCode": "TODO"
    },
    {
        "longitude": 114.7277,
        "latitude": 0,
        "postalCodeTemp": "BA2110",
        "postalCode": "TODO"
    },
    {
        "longitude": 114.7277,
        "latitude": 0,
        "postalCodeTemp": "BA2711",
        "postalCode": "TODO"
    },
    {
        "longitude": 114.7277,
        "latitude": 0,
        "postalCodeTemp": "BD1317",
        "postalCode": "TODO"
    },
    {
        "longitude": 114.7277,
        "latitude": 0,
        "postalCodeTemp": "BF3223",
        "postalCode": "TODO"
    },
    {
        "longitude": 114.7277,
        "latitude": 0,
        "postalCodeTemp": "BD1117",
        "postalCode": "TODO"
    },
    {
        "longitude": 114.7277,
        "latitude": 0,
        "postalCodeTemp": "BD1310",
        "postalCode": "TODO"
    },
    {
        "longitude": 114.7277,
        "latitude": 0,
        "postalCodeTemp": "BD1517",
        "postalCode": "TODO"
    },
    {
        "longitude": 114.7277,
        "latitude": 4.5353,
        "postalCodeTemp": "BD1717",
        "postalCode": "TODO"
    },
    {
        "longitude": 114.7277,
        "latitude": 4.5353,
        "postalCodeTemp": "BD2117",
        "postalCode": "TODO"
    },
    {
        "longitude": 114.7277,
        "latitude": 4.5353,
        "postalCodeTemp": "BD2710",
        "postalCode": "TODO"
    },
    {
        "longitude": 0,
        "latitude": 4.5353,
        "postalCodeTemp": "BD3717",
        "postalCode": "TODO"
    },
    {
        "longitude": 0,
        "latitude": 4.5353,
        "postalCodeTemp": "BD4517",
        "postalCode": "TODO"
    },
    {
        "longitude": 0,
        "latitude": 4.5353,
        "postalCodeTemp": "BU2529",
        "postalCode": "TODO"
    },
    {
        "longitude": 0,
        "latitude": 4.5353,
        "postalCodeTemp": "BH1223",
        "postalCode": "TODO"
    },
    {
        "longitude": 0,
        "latitude": 4.5353,
        "postalCodeTemp": "BP1326",
        "postalCode": "TODO"
    },
    {
        "longitude": 0,
        "latitude": 4.5353,
        "postalCodeTemp": "BP1526",
        "postalCode": "TODO"
    },
    {
        "longitude": 0,
        "latitude": 4.5353,
        "postalCodeTemp": "BP1726",
        "postalCode": "TODO"
    },
    {
        "longitude": 0,
        "latitude": 4.5353,
        "postalCodeTemp": "BP1926",
        "postalCode": "TODO"
    },
    {
        "longitude": 0,
        "latitude": 4.5353,
        "postalCodeTemp": "BP2126",
        "postalCode": "TODO"
    },
    {
        "longitude": 0,
        "latitude": 4.5353,
        "postalCodeTemp": "BP2326",
        "postalCode": "TODO"
    },
    {
        "longitude": 0,
        "latitude": 4.5353,
        "postalCodeTemp": "BG1121",
        "postalCode": "TODO"
    },
    {
        "longitude": 0,
        "latitude": 4.5353,
        "postalCodeTemp": "BG1321",
        "postalCode": "TODO"
    },
    {
        "longitude": 0,
        "latitude": 4.5353,
        "postalCodeTemp": "BG1521",
        "postalCode": "TODO"
    },
    {
        "longitude": 0,
        "latitude": 4.5353,
        "postalCodeTemp": "BG2121",
        "postalCode": "TODO"
    },
    {
        "longitude": 0,
        "latitude": 4.5353,
        "postalCodeTemp": "TD2941",
        "postalCode": "TODO"
    },
    {
        "longitude": 0,
        "latitude": 4.5353,
        "postalCodeTemp": "BG2721",
        "postalCode": "TODO"
    },
    {
        "longitude": 0,
        "latitude": 4.5353,
        "postalCodeTemp": "BG3110",
        "postalCode": "TODO"
    },
    {
        "longitude": 0,
        "latitude": 4.5353,
        "postalCodeTemp": "BG2521",
        "postalCode": "TODO"
    },
    {
        "longitude": 0,
        "latitude": 4.5353,
        "postalCodeTemp": "BT1328",
        "postalCode": "TODO"
    },
    {
        "longitude": 0,
        "latitude": 4.5353,
        "postalCodeTemp": "TA3941",
        "postalCode": "TODO"
    },
    {
        "longitude": 0,
        "latitude": 4.5353,
        "postalCodeTemp": "TD 1741",
        "postalCode": "TODO"
    },
    {
        "longitude": 0,
        "latitude": 4.5353,
        "postalCodeTemp": "TD2741",
        "postalCode": "TODO"
    },
    {
        "longitude": 0,
        "latitude": 4.5353,
        "postalCodeTemp": "TD3141",
        "postalCode": "TODO"
    },
    {
        "longitude": 0,
        "latitude": 4.5353,
        "postalCodeTemp": "TC3545",
        "postalCode": "TODO"
    },
    {
        "longitude": 0,
        "latitude": 4.5353,
        "postalCodeTemp": "TC3745",
        "postalCode": "TODO"
    },
    {
        "longitude": 0,
        "latitude": 4.5353,
        "postalCodeTemp": "TC3945",
        "postalCode": "TODO"
    },
    {
        "longitude": 0,
        "latitude": 4.5353,
        "postalCodeTemp": "TC4145",
        "postalCode": "TODO"
    },
    {
        "longitude": 114.7277,
        "latitude": 4.5353,
        "postalCodeTemp": "KD2132",
        "postalCode": "TODO"
    },
    {
        "longitude": 114.7277,
        "latitude": 4.5353,
        "postalCodeTemp": "KD2332",
        "postalCode": "TODO"
    },
    {
        "longitude": 114.7277,
        "latitude": 4.5353,
        "postalCodeTemp": "KD2532",
        "postalCode": "TODO"
    },
    {
        "longitude": 114.7277,
        "latitude": 4.5353,
        "postalCodeTemp": "KD2732",
        "postalCode": "TODO"
    },
    {
        "longitude": 114.7277,
        "latitude": 4.5353,
        "postalCodeTemp": "KE4337",
        "postalCode": "TODO"
    },
    {
        "longitude": 114.7277,
        "latitude": 4.5353,
        "postalCodeTemp": "KE4537",
        "postalCode": "TODO"
    },
    {
        "longitude": 114.7277,
        "latitude": 4.5353,
        "postalCodeTemp": "KC3335",
        "postalCode": "TODO"
    },
    {
        "longitude": 114.7277,
        "latitude": 4.5353,
        "postalCodeTemp": "KC3535",
        "postalCode": "TODO"
    },
    {
        "longitude": 114.7277,
        "latitude": 4.5353,
        "postalCodeTemp": "KC3735",
        "postalCode": "TODO"
    },
    {
        "longitude": 114.7277,
        "latitude": 4.5353,
        "postalCodeTemp": "KC3935",
        "postalCode": "TODO"
    },
    {
        "longitude": 114.7277,
        "latitude": 4.5353,
        "postalCodeTemp": "KC4135",
        "postalCode": "TODO"
    },
    {
        "longitude": 114.7277,
        "latitude": 4.5353,
        "postalCodeTemp": "KC4335",
        "postalCode": "TODO"
    },
    {
        "longitude": 114.7277,
        "latitude": 4.5353,
        "postalCodeTemp": "KC4535",
        "postalCode": "TODO"
    },
    {
        "longitude": 114.7277,
        "latitude": 4.5353,
        "postalCodeTemp": "KC4735",
        "postalCode": "TODO"
    },
    {
        "longitude": 114.7277,
        "latitude": 4.5353,
        "postalCodeTemp": "PD1851",
        "postalCode": "TODO"
    },
    {
        "longitude": 114.7277,
        "latitude": 4.5353,
        "postalCodeTemp": "PA2451",
        "postalCode": "TODO"
    },
    {
        "longitude": 114.7277,
        "latitude": 4.5353,
        "postalCodeTemp": "PA2851",
        "postalCode": "TODO"
    },
    {
        "longitude": 114.7277,
        "latitude": 4.5353,
        "postalCodeTemp": "PA3451",
        "postalCode": "TODO"
    },
    {
        "longitude": 114.7277,
        "latitude": 4.5353,
        "postalCodeTemp": "PC3251",
        "postalCode": "TODO"
    },
    {
        "longitude": 114.7277,
        "latitude": 4.5353,
        "postalCodeTemp": "PC3451",
        "postalCode": "TODO"
    },
    {
        "longitude": 114.7277,
        "latitude": 4.5353,
        "postalCodeTemp": "BM1126",
        "postalCode": "TODO"
    },
    {
        "longitude": 114.7277,
        "latitude": 4.5353,
        "postalCodeTemp": "BD3117",
        "postalCode": "TODO"
    },
    {
        "longitude": 114.7277,
        "latitude": 4.5353,
        "postalCodeTemp": "BG1921",
        "postalCode": "TODO"
    },
    {
        "longitude": 114.7277,
        "latitude": 4.5353,
        "postalCodeTemp": "BG3522",
        "postalCode": "TODO"
    },
    {
        "longitude": 114.7277,
        "latitude": 4.5353,
        "postalCodeTemp": "BT3528",
        "postalCode": "TODO"
    },
    {
        "longitude": 114.7277,
        "latitude": 4.5353,
        "postalCodeTemp": "BK1125",
        "postalCode": "TODO"
    },
    {
        "longitude": 114.7277,
        "latitude": 4.5353,
        "postalCodeTemp": "BK1325",
        "postalCode": "TODO"
    },
    {
        "longitude": 114.7277,
        "latitude": 4.5353,
        "postalCodeTemp": "BK1525",
        "postalCode": "TODO"
    },
    {
        "longitude": 114.7277,
        "latitude": 4.5353,
        "postalCodeTemp": "BK1725",
        "postalCode": "TODO"
    },
    {
        "longitude": 114.7277,
        "latitude": 4.5353,
        "postalCodeTemp": "BK1925",
        "postalCode": "TODO"
    },
    {
        "longitude": 114.7277,
        "latitude": 4.5353,
        "postalCodeTemp": "BK2125",
        "postalCode": "TODO"
    },
    {
        "longitude": 114.7277,
        "latitude": 4.5353,
        "postalCodeTemp": "BK2325",
        "postalCode": "TODO"
    },
    {
        "longitude": 114.7277,
        "latitude": 4.5353,
        "postalCodeTemp": "BB351",
        "postalCode": "TODO"
    }
]